NORAD_CAT_ID,OBJECT_NAME,OBJECT_TYPE,EPOCH,MEAN_MOTION,ECCENTRICITY,INCLINATION,RA_OF_ASC_NODE,ARG_OF_PERICENTER,MEAN_ANOMALY,BSTAR,MEAN_MOTION_DOT,MEAN_MOTION_DDOT,TLE_LINE0,TLE_LINE1,TLE_LINE2,SEMIMAJOR_AXIS,PERIOD,APOGEE,PERIGEE,DECAYED
51870.0,STARLINK-3591,PAYLOAD,2022-11-08 07:57:33,15.08844381,0.000204,53.2164,74.0613,55.1105,305.0078,0.00014288,1.987e-05,0.0,0 STARLINK-3591,1 51870U 22022U   22312.33163323  .00001987  00000-0  14288-3 0  9994,2 51870  53.2164  74.0613 0002040  55.1105 305.0078 15.08844381 39386,6917.8669999999975,95.437,541.143,538.321,0.0
51870.0,STARLINK-3591,PAYLOAD,2022-11-09 14:09:53,15.08817385,0.0001954,53.2157,68.4098,46.4786,313.6368,-0.00048591,-8.008e-05,0.0,0 STARLINK-3591,1 51870U 22022U   22313.59019708 -.00008008  00000-0 -48591-3 0  9997,2 51870  53.2157  68.4098 0001954  46.4786 313.6368 15.08817385 39575,6917.95,95.439,541.1659999999998,538.4630000000002,0.0
51870.0,STARLINK-3591,PAYLOAD,2022-11-09 17:20:39,15.0881923,0.0001997,53.2162,67.8159,46.8094,313.3065,-0.00042613,-7.06e-05,0.0,0 STARLINK-3591,1 51870U 22022U   22313.72267755 -.00007060  00000-0 -42613-3 0  9995,2 51870  53.2162  67.8159 0001997  46.8094 313.3065 15.08819230 39599,6917.944,95.439,541.19,538.427,0.0
51870.0,STARLINK-3591,PAYLOAD,2022-11-10 14:00:40,15.08819676,0.0002211,53.2161,63.9516,46.0312,314.0862,-0.00034966,-5.846e-05,0.0,0 STARLINK-3591,1 51870U 22022U   22314.58380495 -.00005846  00000-0 -34966-3 0  9999,2 51870  53.2161  63.9516 0002211  46.0312 314.0862 15.08819676 39729,6917.943,95.439,541.337,538.278,0.0
51870.0,STARLINK-3591,PAYLOAD,2022-11-10 17:11:27,15.08818484,0.0002131,53.2163,63.3566,39.525,320.5898,-0.00027986,-4.737e-05,0.0,0 STARLINK-3591,1 51870U 22022U   22314.71628760 -.00004737  00000-0 -27986-3 0  9996,2 51870  53.2163  63.3566 0002131  39.5250 320.5898 15.08818484 39748,6917.946,95.439,541.285,538.337,0.0
51870.0,STARLINK-3591,PAYLOAD,2022-11-10 18:46:50,15.08818898,0.0002144,53.2161,63.0593,40.73,319.3852,-0.00024957,-4.256e-05,0.0,0 STARLINK-3591,1 51870U 22022U   22314.78252838 -.00004256  00000-0 -24957-3 0  9993,2 51870  53.2161  63.0593 0002144  40.7300 319.3852 15.08818898 39753,6917.945,95.439,541.293,538.327,0.0
51870.0,STARLINK-3591,PAYLOAD,2022-11-11 12:16:05,15.08825908,0.0002193,53.216,59.7888,41.0533,319.0624,0.00014535,2.025e-05,0.0,0 STARLINK-3591,1 51870U 22022U   22315.51117470  .00002025  00000-0  14535-3 0  9998,2 51870  53.2160  59.7888 0002193  41.0533 319.0624 15.08825908 39863,6917.9230000000025,95.438,541.306,538.271,0.0
51870.0,STARLINK-3591,PAYLOAD,2022-11-11 13:51:28,15.08831578,0.0002114,53.2161,59.4908,42.1527,317.9628,0.0002384,3.507e-05,0.0,0 STARLINK-3591,1 51870U 22022U   22315.57741289  .00003507  00000-0  23840-3 0  9990,2 51870  53.2161  59.4908 0002114  42.1527 317.9628 15.08831578 39874,6917.906,95.438,541.234,538.309,0.0
51870.0,STARLINK-3591,PAYLOAD,2022-11-11 17:02:15,15.08828054,0.000213,53.2163,58.8961,42.2644,317.8512,0.00038432,5.832e-05,0.0,0 STARLINK-3591,1 51870U 22022U   22315.70989882  .00005832  00000-0  38432-3 0  9994,2 51870  53.2163  58.8961 0002130  42.2644 317.8512 15.08828054 39895,6917.917,95.438,541.255,538.308,0.0
51870.0,STARLINK-3591,PAYLOAD,2022-11-12 13:42:16,15.08820148,0.0002085,53.2164,55.0301,46.1398,313.9766,-0.000598,-9.788e-05,0.0,0 STARLINK-3591,1 51870U 22022U   22316.57102571 -.00009788  00000-0 -59800-3 0  9990,2 51870  53.2164  55.0301 0002085  46.1398 313.9766 15.08820148 40022,6917.941,95.439,541.248,538.364,0.0
51870.0,STARLINK-3591,PAYLOAD,2022-11-12 16:53:02,15.088637099999998,0.0002014,53.2165,54.43600000000001,35.3642,324.7483,0.00072979,0.00011353,0.0,0 STARLINK-3591,1 51870U 22022U   22316.70349542  .00011353  00000-0  72979-3 0  9997,2 51870  53.2165  54.4360 0002014  35.3642 324.7483 15.08863710 40045,6917.808000000001,95.436,541.066,538.28,0.0
51870.0,STARLINK-3591,PAYLOAD,2022-11-12 18:28:25,15.0884845,0.0002234,53.2163,54.1379,33.802,326.3114,0.00040186,6.115e-05,0.0,0 STARLINK-3591,1 51870U 22022U   22316.76973576  .00006115  00000-0  40186-3 0  9998,2 51870  53.2163  54.1379 0002234  33.8020 326.3114 15.08848450 40051,6917.855,95.437,541.265,538.174,0.0
51870.0,STARLINK-3591,PAYLOAD,2022-11-12 23:14:34,15.08852041,0.0001955,53.2161,53.2462,32.7962,327.3152,0.00033451,5.041e-05,0.0,0 STARLINK-3591,1 51870U 22022U   22316.96845524  .00005041  00000-0  33451-3 0  9995,2 51870  53.2161  53.2462 0001955  32.7962 327.3152 15.08852041 40081,6917.844,95.437,541.061,538.356,0.0
51870.0,STARLINK-3591,PAYLOAD,2022-11-13 11:57:40,15.08774328,0.0001874,53.2159,50.8672,24.5664,335.5417,-0.0028241,-0.00044874,0.0,0 STARLINK-3591,1 51870U 22022U   22317.49838692 -.00044874  00000-0 -28241-2 0  9991,2 51870  53.2159  50.8672 0001874  24.5664 335.5417 15.08774328 40167,6918.081,95.442,541.243,538.65,0.0
51870.0,STARLINK-3591,PAYLOAD,2022-11-13 16:43:48,15.08851732,0.0001315,53.2158,49.9745,16.160999999999998,343.9424,0.00040514,6.168e-05,0.0,0 STARLINK-3591,1 51870U 22022U   22317.69709142  .00006168  00000-0  40514-3 0  9990,2 51870  53.2158  49.9745 0001315  16.1610 343.9424 15.08851732 40193,6917.845,95.437,540.619,538.8,0.0
51870.0,STARLINK-3591,PAYLOAD,2022-11-14 07:02:17,15.08842882,0.0001881,53.2154,47.2983,30.951,329.1593,0.00028759,4.292e-05,0.0,0 STARLINK-3591,1 51870U 22022U   22318.29325469  .00004292  00000-0  28759-3 0  9996,2 51870  53.2154  47.2983 0001881  30.9510 329.1593 15.08842882 40284,6917.871999999999,95.437,541.038,538.435,0.0
51870.0,STARLINK-3591,PAYLOAD,2022-11-14 11:48:26,15.08847526,0.0001824,53.2155,46.4065,30.2482,329.8616,0.00048343,7.416e-05,0.0,0 STARLINK-3591,1 51870U 22022U   22318.49197389  .00007416  00000-0  48343-3 0  9998,2 51870  53.2155  46.4065 0001824  30.2482 329.8616 15.08847526 40312,6917.857,95.437,540.984,538.461,0.0
51870.0,STARLINK-3591,PAYLOAD,2022-11-14 13:23:49,15.08846167,0.0002132,53.2162,46.1096,32.7689,327.3435,0.00027645,4.115e-05,0.0,0 STARLINK-3591,1 51870U 22022U   22318.55821489  .00004115  00000-0  27645-3 0  9995,2 51870  53.2162  46.1096 0002132  32.7689 327.3435 15.08846167 40323,6917.861999999999,95.437,541.201,538.252,0.0
51870.0,STARLINK-3591,PAYLOAD,2022-11-15 13:14:36,15.08853507,0.0002137,53.2159,41.6482,36.6381,323.4756,0.00034262,5.171e-05,0.0,0 STARLINK-3591,1 51870U 22022U   22319.55180962  .00005171  00000-0  34262-3 0  9996,2 51870  53.2159  41.6482 0002137  36.6381 323.4756 15.08853507 40470,6917.839,95.437,541.182,538.226,0.0
51870.0,STARLINK-3591,PAYLOAD,2022-11-15 18:00:45,15.08855244,0.0002098,53.2156,40.7561,36.5665,323.547,0.00041316,6.296e-05,0.0,0 STARLINK-3591,1 51870U 22022U   22319.75052811  .00006296  00000-0  41316-3 0  9996,2 51870  53.2156  40.7561 0002098  36.5665 323.5470 15.08855244 40503,6917.834,95.437,541.15,538.247,0.0
51870.0,STARLINK-3591,PAYLOAD,2022-11-16 09:54:37,15.08839065,0.0002037,53.2161,37.7852,37.0521,323.0612,0.000136,1.877e-05,0.0,0 STARLINK-3591,1 51870U 22022U   22320.41293425  .00001877  00000-0  13600-3 0  9994,2 51870  53.2161  37.7852 0002037  37.0521 323.0612 15.08839065 40605,6917.8830000000025,95.438,541.1569999999998,538.339,0.0
51870.0,STARLINK-3591,PAYLOAD,2022-11-17 09:45:24,15.08850026,0.0002634999999999,53.2167,33.3248,37.1835,322.934,9.6107e-05,1.242e-05,0.0,0 STARLINK-3591,1 51870U 22022U   22321.40652959  .00001242  00000-0  96107-4 0  9995,2 51870  53.2167  33.3248 0002635  37.1835 322.9340 15.08850026 40757,6917.85,95.437,541.538,537.8919999999998,0.0
51870.0,STARLINK-3591,PAYLOAD,2022-11-17 11:20:47,15.08850321,0.0002633,53.2167,33.0275,37.7747,322.3429,0.00011062,1.473e-05,0.0,0 STARLINK-3591,1 51870U 22022U   22321.47276926  .00001473  00000-0  11062-3 0  9990,2 51870  53.2167  33.0275 0002633  37.7747 322.3429 15.08850321 40761,6917.849,95.437,541.535,537.8919999999998,0.0
51870.0,STARLINK-3591,PAYLOAD,2022-11-18 11:11:34,15.08837779,0.0002375,53.2156,28.5644,40.719,319.398,-2.4435e-05,-6.77e-06,0.0,0 STARLINK-3591,1 51870U 22022U   22322.46637229 -.00000677  00000-0 -24435-4 0  9993,2 51870  53.2156  28.5644 0002375  40.7190 319.3980 15.08837779 40914,6917.887,95.438,541.395,538.109,0.0
51870.0,STARLINK-3591,PAYLOAD,2022-11-18 12:46:57,15.08833066,0.0002272,53.2154,28.2673,40.3625,319.7536,-8.062399999999999e-05,-1.571e-05,0.0,0 STARLINK-3591,1 51870U 22022U   22322.53261509 -.00001571  00000-0 -80624-4 0  9991,2 51870  53.2154  28.2673 0002272  40.3625 319.7536 15.08833066 40923,6917.901999999999,95.438,541.3380000000002,538.195,0.0
51870.0,STARLINK-3591,PAYLOAD,2022-11-19 04:40:49,15.08832131,0.0002148,53.2168,25.2931,40.2454,319.8697,0.00028832,4.302e-05,0.0,0 STARLINK-3591,1 51870U 22022U   22323.19501240  .00004302  00000-0  28832-3 0  9998,2 51870  53.2168  25.2931 0002148  40.2454 319.8697 15.08832131 41026,6917.904,95.438,541.255,538.283,0.0
51870.0,STARLINK-3591,PAYLOAD,2022-11-19 14:13:07,15.08842759,0.0002256,53.217,23.5094,37.7291,322.3859,-1.9604e-06,-3.2e-06,0.0,0 STARLINK-3591,1 51870U 22022U   22323.59245104 -.00000320  00000-0 -19604-5 0  9993,2 51870  53.2170  23.5094 0002256  37.7291 322.3859 15.08842759 41082,6917.871999999999,95.437,541.298,538.1759999999998,0.0
51870.0,STARLINK-3591,PAYLOAD,2022-11-19 20:34:40,15.08841844,0.000228,53.2169,22.32,37.7394,322.3758,-2.4094e-05,-6.72e-06,0.0,0 STARLINK-3591,1 51870U 22022U   22323.85741090 -.00000672  00000-0 -24094-4 0  9995,2 51870  53.2169  22.3200 0002280  37.7394 322.3758 15.08841844 41124,6917.875,95.437,541.317,538.1619999999998,0.0
51870.0,STARLINK-3591,PAYLOAD,2022-11-20 04:31:36,15.08833612,0.000203,53.2175,20.8328,39.2285,320.8854,2.8323000000000013e-05,1.63e-06,0.0,0 STARLINK-3591,1 51870U 22022U   22324.18861594  .00000163  00000-0  28323-4 0  9996,2 51870  53.2175  20.8328 0002030  39.2285 320.8854 15.08833612 41173,6917.9,95.438,541.169,538.361,0.0
